#cP2025  4 18 12  0  0.00000000     192 ORBIT IGb20 HLM  IGS
## 2362 475200.00000000   900.00000000 60783 0.5000000000000
+   50   G01G02G03G04G05G06G07G08G09G10G11G12G13G14G15G16G17
+        G18G19G20G22G23G24G25G26G27G28G29G30G31G32R02R03R04
+        R05R07R08R09R11R12R14R15R16R17R18R19R20R21R22R24  0
+          0  0  0  0  0  0  0  0  0  0  0  0  0  0  0  0  0
+          0  0  0  0  0  0  0  0  0  0  0  0  0  0  0  0  0
++         4  4  5  4  4  4  4  4  4  4  4  4  4  5  0  5  4
++         4  4  5  4  4  4  5  0  4  4  4  4  4  4  5  5  5
++         6  5  5  5  5  5  5  4  5  5  5  5  5  5  5  6  0
++         0  0  0  0  0  0  0  0  0  0  0  0  0  0  0  0  0
++         0  0  0  0  0  0  0  0  0  0  0  0  0  0  0  0  0
%c M  cc GPS ccc cccc cccc cccc cccc ccccc ccccc ccccc ccccc
%c cc cc ccc ccc cccc cccc cccc cccc ccccc ccccc ccccc ccccc
%f  1.2500000  1.025000000  0.00000000000  0.000000000000000
%f  0.0000000  0.000000000  0.00000000000  0.000000000000000
%i    0    0    0    0      0      0      0      0         0
%i    0    0    0    0      0      0      0      0         0
/* ULTRA ORBIT COMBINATION 23626_12 (60784.500) FROM:       
/* emu esu gfu gru jgu siu usu whu emR esR gfR jgR whR      
/* REFERENCED TO emu CLOCK AND TO WEIGHTED MEAN POLE:       
/* PCV:IGS20      OL/AL:FES2014b NONE     Y  ORB:CMB CLK:CMB
*  2025  4 18 20  0  0.00000000
PG01  20209.330166  15277.251921  -8021.591780    227.290874  6  9  7 170       
PG02  13487.422756  15480.128189 -16634.584207   -191.163666  9  9  5 153       
PG03  11357.815999  20987.281846  11613.888900    686.458777  8  8  9 136       
PG04  13077.057921   8584.553089  21509.160157    555.654039  4  9  9 185       
PG05  -6422.203829 -25729.874298   -728.654435   -207.602371  9  9  9 150       
PG06  14488.038715  -8902.282731  20503.855832   -312.105102  8 10  6 183       
PG07  25667.144120   5932.660772  -4332.754043    -21.848495  9 11  6 145       
PG08   4984.039049  15758.026500 -20854.817095    510.177802  6  8  9 159       
PG09  20121.208394  -1862.167926  17182.542764    634.816410  5  6  7 195       
PG10 -11263.466919  12591.692483 -20163.672334   -394.816683  8  9 10 207       
PG11   2953.198254 -15041.776642  21731.903005   -726.518284  9 10  6 189       
PG12 -10199.525452 -21737.212084  11100.262555   -580.620052  7 11  9 195       
PG13   6517.110244 -18511.530337 -18012.865337    700.524157  7  9  7 193       
PG14  13645.810640  -9371.892093 -20664.394863    632.610366  8 11  8 172       
PG15  -7424.739276 -15079.178149 -21067.259177    286.832880 16 11 10 105       
PG16   -934.300685  25809.466354   4728.262408     -4.070712 10  9 11 181       
PG17  22873.498725 -12420.816465  -5440.373425    322.109280  6  8  4 123       
PG18 -25309.510214  -4457.560416  -7150.568742   -635.479986  2 11  8 143       
PG19  19998.402872 -16683.365021   3597.986046    620.095962  5  6  8 160       
PG20    495.430198 -23544.148184  12479.696971    364.966309 14 13 15 176       
PG22  10551.575599 -17086.692910 -17163.165570   -102.428474  7 11 11 183       
PG23 -15282.023791  -3630.037211 -21409.149258    461.880875  9 10  5 116       
PG24 -17684.152192 -14920.853436 -13860.310284   -419.492459  5 10  8 183       
PG25 -15547.579469 -11123.768594  18180.795857    490.065812  1 11 10 209       
PG26  -4990.072598  21607.056098  14131.255616   -193.145196 11 15 17 199       
PG27  -7523.572021  20552.712060 -15062.426993    -27.518703  8  8 10 193       
PG28 -17098.481532   8101.515078  18639.178776   -599.011196  3 10  7 146       
PG29 -19888.264318   -605.473625  17608.539334   -516.375731  7 10  2 201       
PG30  21907.212035  -3643.817749 -14591.356728   -166.541970  7 10  8 136       
PG31  -8551.337606  12917.476646  21352.147582   -209.841030  6 10  7 201       
PG32 -20703.800196  16352.119283  -1670.163407   -474.127004  6  6 10 187       
PR02   6652.027759   9437.468191  22789.231498 999999.999999  5 11  8           
PR03  15020.546281  -8319.615752  18939.103239 999999.999999  8 11 12           
PR04  14719.341153 -20250.284736   4955.523230 999999.999999  5  3 11           
PR05   6713.955207 -21643.972043 -11711.441944 999999.999999 11 10 10           
PR07 -15000.918784   8404.249901 -18775.476792 999999.999999  9 11  5           
PR08 -14377.039154  20551.954324  -4491.055855 999999.999999 11  8  7           
PR09 -15771.465695 -18785.617294   6860.079214 999999.999999  8 11  9           
PR11  -6736.150637   9711.482902  22617.273830 999999.999999 11 11  8           
PR12   6711.575183  22017.528891  11007.112827 999999.999999 12  9 15           
PR14  14684.153220   5587.704014 -20090.627333 999999.999999  1 14  9           
PR15   5695.808615 -11349.099321 -22102.327412 999999.999999 10 11  9           
PR16  -6774.244869 -21931.715668 -11075.576851 999999.999999  8 14 10           
PR17  25410.253200   -671.964926   1880.397540 999999.999999  3  8  8           
PR18  17938.724650  -7210.996192  16678.478364 999999.999999  9  7  9           
PR19   3782.629655 -10184.494293  23072.899255 999999.999999 14 14 12           
PR20 -18326.926592  -8114.120782  15753.566394 999999.999999 16 17 11           
PR21 -25517.286581   -378.337346   -154.341878 999999.999999  6 11 14           
PR22 -16931.107113   7641.457327 -17452.358553 999999.999999  3 12 10           
PR24  19099.972058   7302.415615 -15229.268608 999999.999999 10 10  7           
*  2025  4 18 20 15  0.00000000
PG01  19136.505089  15086.336869 -10598.178026    227.305128  6  9  7 165       
PG02  11446.847502  15144.516816 -18304.233053   -191.155146  9  9  5 138       
PG03  11453.812884  22191.087999   9045.849462    686.461314  7  7  9 116       
PG04  11199.269755  10192.843566  21850.996217    555.658481  5  9  9 187       
PG05  -6186.808722 -25687.467770   2159.990185   -207.603088  9  9  9 160       
PG06  16591.020609  -8101.800585  19208.071234   -312.123878  8  9  6 180       
PG07  25964.760028   6294.706800  -1549.147821    -21.850708  9 10  7 137       
PG08   3250.788767  17299.145726 -19907.468224    510.181597  6  8  9 152       
PG09  18719.084946   -331.093308  18776.993463    634.826537  6  7  7 196       
PG10 -11832.334329  10243.911904 -21160.421645   -394.828351  8  9 10 208       
PG11   5283.415350 -14179.197927  21864.798663   -726.513527  9 10  6 189       
PG12 -10134.999625 -22919.845460   8557.523102   -580.621671  7 11  9 197       
PG13   8195.106326 -19460.400490 -16190.614847    700.524344  7  9  7 194       
PG14  14180.080076  -7010.879186 -21254.039097    632.615623  8 11  7 159       
PG15  -5936.437165 -16790.623145 -20193.841678    286.836484 16 10 12  75       
PG16  -1311.250894  25100.615200   7490.924072     -4.062832 10  8 11 184       
PG17  22375.136143 -11731.939267  -8146.526356    322.092203  6  8  4 156       
PG18 -25868.696615  -4854.988436  -4383.628205   -635.476266  3 11  8 160       
PG19  20380.294755 -16610.005007    724.741416    620.099241  6  7  8 165       
PG20   1265.889654 -22197.986467  14699.897595    364.966071 14 13 15 180       
PG22  10944.264437 -15006.676500 -18727.751547   -102.429151  7 12 10 182       
PG23 -15795.322858  -5972.763565 -20514.672709    461.886986  9 10  4 115       
PG24 -16057.220550 -14783.466205 -15874.598956   -419.486206  6 10  8 190       
PG25 -15859.320515 -13152.274566  16537.813306    490.064871  1 11 10 209       
PG26  -5774.675371  19983.668626  16095.767669   -193.163730 11 15 17 202       
PG27  -8823.345675  21452.029687 -12859.274655    -27.518059  8  7 10 196       
PG28 -19016.917041   7393.462008  17004.578060   -599.016611  4 10  8 143       
PG29 -18300.014615  -1994.757574  19144.472960   -516.371940  8 11  2 200       
PG30  23328.945979  -2939.767446 -12435.139392   -166.533460  8 10  8 134       
PG31 -10865.001858  12069.760753  20826.867982   -209.839921  6 10  8 204       
PG32 -20599.064962  15901.214863  -4515.312839   -474.118434  5  5 10 190       
PR02   5361.571818  11868.750420  21971.407965 999999.999999  4 11  9           
PR03  13792.012040  -6223.715828  20605.016183 999999.999999  9 11 11           
PR04  14175.651061 -19638.387074   8054.795845 999999.999999  6  3 11           
PR05   7184.066961 -22835.538361  -8817.738980 999999.999999 11 10  9           
PR07 -13771.562390   6301.618053 -20464.529759 999999.999999  9 11  5           
PR08 -13876.336715  19962.662601  -7602.954818 999999.999999 11  8  7           
PR09 -16205.975919 -19280.854360   3756.865565 999999.999999  8 10  9           
PR11  -8225.333912   7324.807891  23018.514475 999999.999999 10 10  9           
PR12   5999.279973  20668.538441  13709.018791 999999.999999 12  9 14           
PR14  16019.304936   7550.611150 -18356.706788 999999.999999  1 13  9           
PR15   7145.434265  -8986.181571 -22758.716429 999999.999999  8 12 10           
PR16  -6063.568739 -20562.843693 -13783.488155 999999.999999  9 13  9           
PR17  25438.194153   -852.548079  -1350.335384 999999.999999  2  7  8           
PR18  19845.159401  -7382.852375  14273.115361 999999.999999  8  7 10           
PR19   6596.535023 -10166.975574  22439.174712 999999.999999 14 14 13           
PR20 -16245.041031  -7921.121648  17982.564256 999999.999999 16 17 11           
PR21 -25333.558515   -185.967422   3071.480380 999999.999999  9 11 13           
PR22 -18950.936407   7724.783502 -15195.313388 999999.999999  4 12 11           
PR24  17076.677806   7260.713037 -17484.684503 999999.999999 10 10  7           
EOF
